STARLINK-32498          
1 61966U 24210H   26068.58512512  .00022434  00000+0  82165-3 0  9997
2 61966  43.0044 165.7411 0001894 285.7197  74.3445 15.27605242 75060
PELICAN-6               
1 66703U 25276AP  26068.70709364  .00077979  00000+0  29726-2 0  9998
2 66703  97.4276 144.2072 0003569 157.8575 202.2819 15.26377980 15334
